{"spkid": "50471612", "covariance": {"elements": [{"title": "eccentricity", "value": ".375027576885374", "units": null, "name": "e", "sigma": 3.55541438083095e-08, "label": "e"}, {"title": "perihelion distance", "value": ".4927290267513487", "units": "au", "sigma": 2.80584236471441e-08, "name": "q", "label": "q"}, {"name": "tp", "sigma": 7.15970362470671e-06, "title": "time of perihelion passage", "value": "2459106.868777169608", "units": "TDB", "label": "tp"}, {"units": "deg", "title": "longitude of the ascending node", "value": "13.84396966114119", "name": "om", "sigma": 7.19098525487473e-06, "label": "node"}, {"title": "argument of perihelion", "value": "201.8611921724769", "units": "deg", "sigma": 6.62079053970461e-06, "name": "w", "label": "peri"}, {"label": "i", "sigma": 5.60643937357549e-06, "name": "i", "title": "inclination", "value": "4.962694836109129", "units": "deg"}], "data": [["1.264097141941949E-15", "-9.975599292140076E-16", "2.512126618253058E-13", "8.251889666547601E-14", "6.090852780484408E-14", "-7.96408304527773E-14", "3.186049008133387E-23"], ["-9.975599292140076E-16", "7.872751375626148E-16", "-1.984017234966659E-13", "-6.48910618806133E-14", "-4.822961626543635E-14", "6.28041386484413E-14", "-2.461435216654882E-23"], ["2.512126618253058E-13", "-1.984017234966659E-13", "5.126135599363835E-11", "1.924087896852701E-11", "9.279443953880247E-12", "-1.522177308155839E-11", "3.251357142822082E-21"], ["8.251889666547601E-14", "-6.48910618806133E-14", "1.924087896852701E-11", "5.171026893582582E-11", "-3.951680279848158E-11", "-3.161657698222402E-11", "5.331791958612679E-21"], ["6.090852780484408E-14", "-4.822961626543635E-14", "9.279443953880247E-12", "-3.951680279848158E-11", "4.383486737064212E-11", "2.115812159858134E-11", "-9.013402075276215E-22"], ["-7.96408304527773E-14", "6.28041386484413E-14", "-1.522177308155839E-11", "-3.161657698222402E-11", "2.115812159858134E-11", "3.143216244957756E-11", "-8.741939331398046E-21"], ["3.186049008133387E-23", "-2.461435216654882E-23", "3.251357142822082E-21", "5.331791958612679E-21", "-9.013402075276215E-22", "-8.741939331398046E-21", "1.243794282130656E-29"]], "labels": ["e", "q", "tp", "node", "peri", "i", "A2"], "epoch": "2459195.5"}, "elements": [{"label": "e", "value": ".3754001958524337", "title": "eccentricity", "units": null, "sigma": "3.6013E-8", "name": "e"}, {"label": "a", "units": "au", "title": "semi-major axis", "value": ".7880497009749799", "name": "a", "sigma": "1.3007E-9"}, {"label": "q", "title": "perihelion distance", "value": ".4922156888875206", "units": "au", "name": "q", "sigma": "2.8513E-8"}, {"value": "5.020258708666416", "title": "inclination; angle with respect to x-y ecliptic plane", "units": "deg", "sigma": "5.6255E-6", "name": "i", "label": "i"}, {"label": "node", "units": "deg", "value": "13.68865795835183", "title": "longitude of the ascending node", "name": "om", "sigma": "7.0801E-6"}, {"sigma": "6.464E-6", "name": "w", "units": "deg", "title": "argument of perihelion", "value": "201.8912761428385", "label": "peri"}, {"label": "M", "units": "deg", "title": "mean anomaly", "value": "68.91924260568966", "name": "ma", "sigma": "1.0043E-5"}, {"label": "tp", "value": "2461151.582209241504", "title": "time of perihelion passage", "units": "TDB", "name": "tp", "sigma": "7.104E-6"}, {"name": "per", "sigma": "6.3262E-7", "title": "sidereal orbital period", "value": "255.5223186913642", "units": "d", "label": "period"}, {"label": "n", "units": "deg/d", "value": "1.408878887150482", "title": "mean motion", "sigma": "3.4881E-9", "name": "n"}, {"label": "Q", "sigma": "1.789E-9", "name": "ad", "title": "aphelion distance", "value": "1.083883713062439", "units": "au"}], "epoch": "2461200.5"}